{
  "type": "FeatureCollection",
  "features": [
    {
      "type": "Feature",
      "properties": {
        "norad_id": 43823,
        "name": "GEO-KOMPSAT-2A",
        "group": "weather",
        "lat": 0.04124134268813601,
        "lon": -158.38279923409172,
        "alt_km": 35787.23044187906,
        "timestamp": "2025-12-23T22:42:32.620558+00:00",
        "meta_object_name": "GEO-KOMPSAT-2A",
        "meta_object_id": "2018-100A",
        "meta_epoch": "2025-12-22T22:20:09.234816",
        "meta_mean_motion": 1.00269844,
        "meta_eccentricity": 3.554e-05,
        "meta_inclination": 0.0514,
        "meta_ra_of_asc_node": 125.2489,
        "meta_arg_of_pericenter": 328.4521,
        "meta_mean_anomaly": 101.3281,
        "meta_ephemeris_type": 0,
        "meta_classification_type": "U",
        "meta_norad_cat_id": 43823,
        "meta_element_set_no": 999,
        "meta_rev_at_epoch": 2586,
        "meta_bstar": 0,
        "meta_mean_motion_dot": -3.22e-06,
        "meta_mean_motion_ddot": 0,
        "tle_line1": "1 43823U 18100A   25356.93066244 -.00000322  00000+0  00000+0 0  9991",
        "tle_line2": "2 43823   0.0514 125.2489 0000355 328.4521 101.3281  1.00269844 25862"
      },
      "geometry": {
        "type": "Point",
        "coordinates": [
          -158.38279923409172,
          0.04124134268813601
        ]
      }
    },
    {
      "type": "Feature",
      "properties": {
        "norad_id": 44387,
        "name": "METEOR-M2 2",
        "group": "weather",
        "lat": -23.229895594199245,
        "lon": 153.95671914403644,
        "alt_km": 815.9903937706385,
        "timestamp": "2025-12-23T22:42:32.620579+00:00",
        "meta_object_name": "METEOR-M2 2",
        "meta_object_id": "2019-038A",
        "meta_epoch": "2025-12-23T06:34:59.525184",
        "meta_mean_motion": 14.24297161,
        "meta_eccentricity": 0.00017094,
        "meta_inclination": 98.8979,
        "meta_ra_of_asc_node": 337.1321,
        "meta_arg_of_pericenter": 127.253,
        "meta_mean_anomaly": 232.8804,
        "meta_ephemeris_type": 0,
        "meta_classification_type": "U",
        "meta_norad_cat_id": 44387,
        "meta_element_set_no": 999,
        "meta_rev_at_epoch": 33625,
        "meta_bstar": 0.00024591128,
        "meta_mean_motion_dot": 5.22e-06,
        "meta_mean_motion_ddot": 0,
        "tle_line1": "1 44387U 19038A   25357.27430006  .00000522  00000+0  24591-3 0  9993",
        "tle_line2": "2 44387  98.8979 337.1321 0001709 127.2530 232.8804 14.24297161336258"
      },
      "geometry": {
        "type": "Point",
        "coordinates": [
          153.95671914403644,
          -23.229895594199245
        ]
      }
    },
    {
      "type": "Feature",
      "properties": {
        "norad_id": 47719,
        "name": "ARKTIKA-M 1",
        "group": "weather",
        "lat": 42.44587198670036,
        "lon": -125.00518764119154,
        "alt_km": 21239.691452677074,
        "timestamp": "2025-12-23T22:42:32.620599+00:00",
        "meta_object_name": "ARKTIKA-M 1",
        "meta_object_id": "2021-016A",
        "meta_epoch": "2025-12-23T01:01:51.743136",
        "meta_mean_motion": 2.00630806,
        "meta_eccentricity": 0.72093828,
        "meta_inclination": 63.1759,
        "meta_ra_of_asc_node": 82.5898,
        "meta_arg_of_pericenter": 269.1646,
        "meta_mean_anomaly": 15.5425,
        "meta_ephemeris_type": 0,
        "meta_classification_type": "U",
        "meta_norad_cat_id": 47719,
        "meta_element_set_no": 999,
        "meta_rev_at_epoch": 3525,
        "meta_bstar": 0,
        "meta_mean_motion_dot": -6.7e-07,
        "meta_mean_motion_ddot": 0,
        "tle_line1": "1 47719U 21016A   25357.04295999 -.00000067  00000+0  00000+0 0  9999",
        "tle_line2": "2 47719  63.1759  82.5898 7209382 269.1646  15.5425  2.00630806 35258"
      },
      "geometry": {
        "type": "Point",
        "coordinates": [
          -125.00518764119154,
          42.44587198670036
        ]
      }
    },
    {
      "type": "Feature",
      "properties": {
        "norad_id": 49008,
        "name": "FENGYUN 3E",
        "group": "weather",
        "lat": -15.206439653364093,
        "lon": 0.7326083958269161,
        "alt_km": 830.9312728374371,
        "timestamp": "2025-12-23T22:42:32.620619+00:00",
        "meta_object_name": "FENGYUN 3E",
        "meta_object_id": "2021-062A",
        "meta_epoch": "2025-12-23T07:33:36.986688",
        "meta_mean_motion": 14.19881487,
        "meta_eccentricity": 8.271e-05,
        "meta_inclination": 98.7471,
        "meta_ra_of_asc_node": 357.7105,
        "meta_arg_of_pericenter": 197.265,
        "meta_mean_anomaly": 162.8499,
        "meta_ephemeris_type": 0,
        "meta_classification_type": "U",
        "meta_norad_cat_id": 49008,
        "meta_element_set_no": 999,
        "meta_rev_at_epoch": 23162,
        "meta_bstar": 3.5104787e-05,
        "meta_mean_motion_dot": 3.1e-07,
        "meta_mean_motion_ddot": 0,
        "tle_line1": "1 49008U 21062A   25357.31501142  .00000031  00000+0  35105-4 0  9992",
        "tle_line2": "2 49008  98.7471 357.7105 0000827 197.2650 162.8499 14.19881487231628"
      },
      "geometry": {
        "type": "Point",
        "coordinates": [
          0.7326083958269161,
          -15.206439653364093
        ]
      }
    },
    {
      "type": "Feature",
      "properties": {
        "norad_id": 51850,
        "name": "GOES 18",
        "group": "weather",
        "lat": -0.00693456119574848,
        "lon": -63.64505372161935,
        "alt_km": 35785.00230416443,
        "timestamp": "2025-12-23T22:42:32.620638+00:00",
        "meta_object_name": "GOES 18",
        "meta_object_id": "2022-021A",
        "meta_epoch": "2025-12-23T07:37:18.727104",
        "meta_mean_motion": 1.00270845,
        "meta_eccentricity": 3.47e-05,
        "meta_inclination": 0.0109,
        "meta_ra_of_asc_node": 113.4809,
        "meta_arg_of_pericenter": 211.8579,
        "meta_mean_anomaly": 104.0988,
        "meta_ephemeris_type": 0,
        "meta_classification_type": "U",
        "meta_norad_cat_id": 51850,
        "meta_element_set_no": 999,
        "meta_rev_at_epoch": 482,
        "meta_bstar": 0,
        "meta_mean_motion_dot": 1.18e-06,
        "meta_mean_motion_ddot": 0,
        "tle_line1": "1 51850U 22021A   25357.31757786  .00000118  00000+0  00000+0 0  9990",
        "tle_line2": "2 51850   0.0109 113.4809 0000347 211.8579 104.0988  1.00270845  4825"
      },
      "geometry": {
        "type": "Point",
        "coordinates": [
          -63.64505372161935,
          -0.00693456119574848
        ]
      }
    },
    {
      "type": "Feature",
      "properties": {
        "norad_id": 54234,
        "name": "NOAA 21 (JPSS-2)",
        "group": "weather",
        "lat": -23.014977688857712,
        "lon": -62.13465178040391,
        "alt_km": 831.3285075036638,
        "timestamp": "2025-12-23T22:42:32.620655+00:00",
        "meta_object_name": "NOAA 21 (JPSS-2)",
        "meta_object_id": "2022-150A",
        "meta_epoch": "2025-12-23T04:12:37.223712",
        "meta_mean_motion": 14.19526903,
        "meta_eccentricity": 0.00017503,
        "meta_inclination": 98.7477,
        "meta_ra_of_asc_node": 293.3541,
        "meta_arg_of_pericenter": 16.8851,
        "meta_mean_anomaly": 343.2383,
        "meta_ephemeris_type": 0,
        "meta_classification_type": "U",
        "meta_norad_cat_id": 54234,
        "meta_element_set_no": 999,
        "meta_rev_at_epoch": 16157,
        "meta_bstar": 5.9309753e-05,
        "meta_mean_motion_dot": 8.1e-07,
        "meta_mean_motion_ddot": 0,
        "tle_line1": "1 54234U 22150A   25357.17543083  .00000081  00000+0  59310-4 0  9991",
        "tle_line2": "2 54234  98.7477 293.3541 0001750  16.8851 343.2383 14.19526903161577"
      },
      "geometry": {
        "type": "Point",
        "coordinates": [
          -62.13465178040391,
          -23.014977688857712
        ]
      }
    },
    {
      "type": "Feature",
      "properties": {
        "norad_id": 54743,
        "name": "METEOSAT-12 (MTG-I1)",
        "group": "weather",
        "lat": 0.5366844248765078,
        "lon": 73.04080229237077,
        "alt_km": 35792.69469451051,
        "timestamp": "2025-12-23T22:42:32.620679+00:00",
        "meta_object_name": "METEOSAT-12 (MTG-I1)",
        "meta_object_id": "2022-170C",
        "meta_epoch": "2025-12-23T06:16:55.712352",
        "meta_mean_motion": 1.00270796,
        "meta_eccentricity": 0.00015576,
        "meta_inclination": 0.6976,
        "meta_ra_of_asc_node": 25.3363,
        "meta_arg_of_pericenter": 240.2744,
        "meta_mean_anomaly": 280.3588,
        "meta_ephemeris_type": 0,
        "meta_classification_type": "U",
        "meta_norad_cat_id": 54743,
        "meta_element_set_no": 999,
        "meta_rev_at_epoch": 1121,
        "meta_bstar": 0,
        "meta_mean_motion_dot": 1.3e-07,
        "meta_mean_motion_ddot": 0,
        "tle_line1": "1 54743U 22170C   25357.26175593  .00000013  00000+0  00000+0 0  9997",
        "tle_line2": "2 54743   0.6976  25.3363 0001557 240.2744 280.3588  1.00270796 11217"
      },
      "geometry": {
        "type": "Point",
        "coordinates": [
          73.04080229237077,
          0.5366844248765078
        ]
      }
    }
  ]
}